[{"OBJECT_NAME":"SNAP-3 ALICE","OBJECT_ID":"2015-058G","EPOCH":"2026-03-09T23:07:48.978048","MEAN_MOTION":15.43691989,"ECCENTRICITY":0.00373618,"INCLINATION":64.7559,"RA_OF_ASC_NODE":82.4068,"ARG_OF_PERICENTER":68.3259,"MEAN_ANOMALY":292.185,"EPHEMERIS_TYPE":0,"CLASSIFICATION_TYPE":"U","NORAD_CAT_ID":40970,"ELEMENT_SET_NO":999,"REV_AT_EPOCH":10149,"BSTAR":0.0014230807,"MEAN_MOTION_DOT":0.0006659,"MEAN_MOTION_DDOT":0},{"OBJECT_NAME":"BIRKELAND","OBJECT_ID":"2023-001G","EPOCH":"2026-03-09T22:29:53.413728","MEAN_MOTION":15.38193984,"ECCENTRICITY":0.00086916,"INCLINATION":97.3442,"RA_OF_ASC_NODE":136.7431,"ARG_OF_PERICENTER":103.0889,"MEAN_ANOMALY":257.1326,"EPHEMERIS_TYPE":0,"CLASSIFICATION_TYPE":"U","NORAD_CAT_ID":55015,"ELEMENT_SET_NO":999,"REV_AT_EPOCH":17708,"BSTAR":0.00029912141,"MEAN_MOTION_DOT":0.00011186,"MEAN_MOTION_DDOT":0}]
